STARLINK-3450           
1 51734U 22016W   26068.91709400 -.00000833  00000+0 -34221-4 0  9994
2 51734  53.2194 318.0990 0001567 102.9267 257.1900 15.08842875223595
RAISE-4                 
1 67073U 25297B   26068.97636248  .00005682  00000+0  37087-3 0  9993
2 67073  97.4953 219.2703 0012713  22.7159 337.4629 15.08174958 12933
