[{"OBJECT_NAME":"STARLINK-3450","OBJECT_ID":"2022-016W","EPOCH":"2026-03-09T22:00:36.922464","MEAN_MOTION":15.08842875,"ECCENTRICITY":0.00015667,"INCLINATION":53.2194,"RA_OF_ASC_NODE":318.099,"ARG_OF_PERICENTER":102.9267,"MEAN_ANOMALY":257.19,"EPHEMERIS_TYPE":0,"CLASSIFICATION_TYPE":"U","NORAD_CAT_ID":51734,"ELEMENT_SET_NO":999,"REV_AT_EPOCH":22359,"BSTAR":-3.4221182e-5,"MEAN_MOTION_DOT":-8.33e-6,"MEAN_MOTION_DDOT":0},{"OBJECT_NAME":"RAISE-4","OBJECT_ID":"2025-297B","EPOCH":"2026-03-09T23:25:57.718272","MEAN_MOTION":15.08174958,"ECCENTRICITY":0.00127133,"INCLINATION":97.4953,"RA_OF_ASC_NODE":219.2703,"ARG_OF_PERICENTER":22.7159,"MEAN_ANOMALY":337.4629,"EPHEMERIS_TYPE":0,"CLASSIFICATION_TYPE":"U","NORAD_CAT_ID":67073,"ELEMENT_SET_NO":999,"REV_AT_EPOCH":1293,"BSTAR":0.00037087145,"MEAN_MOTION_DOT":5.682e-5,"MEAN_MOTION_DDOT":0}]
